METEOSAT-11 (MSG-4)     
1 40732U 15034A   18254.69636107 -.00000027  00000-0  00000+0 0  9996
2 40732   1.2186 242.9492 0001413 249.9093 108.8627  1.00279409 11616
STAR ONE C4             
1 40733U 15034B   18255.21907905 -.00000292  00000-0  00000+0 0  9997
2 40733   0.0043 118.4140 0000792  40.2415 201.3478  1.00265716 11611
INTELSAT 34 (IS-34)     
1 40874U 15039A   18255.17884614 -.00000313  00000-0  00000+0 0  9998
2 40874   0.0214 173.7171 0000504 249.0300 297.2580  1.00268062 11253
EUTELSAT 8 WEST B       
1 40875U 15039B   18254.04997427 -.00000095  00000-0  00000+0 0  9998
2 40875   0.0673   7.9372 0003182 155.5839 196.4873  1.00272082 11259
GSAT-6                  
1 40880U 15041A   18254.79500556 -.00000192  00000-0  00000+0 0  9990
2 40880   0.0356 125.6808 0007959 121.5235 112.7116  1.00269493 11202
INMARSAT 5-F3           
1 40882U 15042A   18254.52755712  .00000021  00000-0  00000+0 0  9990
2 40882   0.0082 135.1838 0000206 210.9651  13.8490  1.00272053 11125
TJS-1                   
1 40892U 15046A   18254.86990043 -.00000184  00000-0  10000-3 0  9996
2 40892   0.0162 194.9991 0002147 168.7351  95.2718  1.00272803 11121
EXPRESS-AM8             
1 40895U 15048A   18255.41049419 -.00000139  00000-0  00000+0 0  9990
2 40895   0.0337 295.8207 0000531   1.0475 188.2624  1.00271506 10958
SKY MUSTER (NBN1A)      
1 40940U 15054A   18255.51308348 -.00000306  00000-0  00000+0 0  9994
2 40940   0.0126 219.4615 0001655 308.8897 148.0549  1.00270684 10859
ARSAT 2                 
1 40941U 15054B   18255.24947125 -.00000252  00000-0  00000+0 0  9997
2 40941   0.0155 157.1594 0001407   1.7320 201.1137  1.00271586 10891
MORELOS 3               
1 40946U 15056A   18255.25056350 -.00000072  00000-0  00000+0 0  9996
2 40946   5.8085 328.3293 0003243 184.2633 175.7066  1.00269902 10866
APSTAR 9                
1 40982U 15059A   18254.63166074 -.00000295  00000-0  00000-0 0  9993
2 40982   0.0429 294.6036 0000537 306.5770 118.8125  1.00270249 10702
TURKSAT 4B              
1 40984U 15060A   18254.88659028  .00000087  00000-0  00000+0 0  9997
2 40984   0.0185 173.8248 0001898 357.9728 188.2055  1.00268675 10680
CHINASAT 2C (ZX 2C)     
1 41021U 15063A   18255.41749463 -.00000350  00000-0  00000+0 0  9990
2 41021   0.0441 300.4269 0001922 345.6452 318.9536  1.00267249 10586
GSAT-15                 
1 41028U 15065A   18254.76601988 -.00000287  00000-0  00000-0 0  9995
2 41028   0.0420 306.2161 0000965 181.2659 232.5254  1.00270583 10419
BADR-7 (ARABSAT-6B)     
1 41029U 15065B   18254.95300050  .00000116  00000-0  00000+0 0  9992
2 41029   0.0508 254.4939 0004537 331.1399 134.3281  1.00271677 10481
LAOSAT 1                
1 41034U 15067A   18254.66910031 -.00000372  00000-0  00000+0 0  9999
2 41034   0.0197 169.1559 0001546 331.8087 219.0466  1.00268933 10419
TELSTAR 12V             
1 41036U 15068A   18254.06935826 -.00000149  00000-0  00000-0 0  9998
2 41036   0.0234 169.2092 0001633   1.0449 189.7491  1.00269634 10196
CHINASAT 1C (ZX 1C)     
1 41103U 15073A   18254.92703987 -.00000181  00000-0  00000-0 0  9991
2 41103   0.1384 103.9123 0002530 132.1185 170.2553  1.00272833 10243
ELEKTRO-L 2             
1 41105U 15074A   18255.06948950 -.00000125  00000-0  00000+0 0  9998
2 41105   0.0059 178.2923 0001302 349.8721 283.9312  1.00273148 10093
COSMOS 2513             
1 41121U 15075A   18246.54917550 -.00000151  00000-0  00000+0 0  9991
2 41121   0.0518 113.3549 0001491  56.9517  90.2659  1.00271701 10088
EXPRESS-AMU1            
1 41191U 15082A   18254.91796735  .00000127  00000-0  00000-0 0  9999
2 41191   0.0148 184.7650 0001729 346.2237 186.4318  1.00269960 10070
GAOFEN 4                
1 41194U 15083A   18255.46136958 -.00000361  00000-0  00000+0 0  9999
2 41194   0.0178 206.0047 0005643  24.1708  33.0006  1.00267355 10064
BELINTERSAT-1           
1 41238U 16001A   18255.63895110  .00000080  00000-0  00000+0 0  9997
2 41238   0.0515 294.2582 0001889 206.9186 131.9266  1.00273298  9831
IRNSS-1E                
1 41241U 16003A   18254.01380061 -.00000302  00000-0  00000+0 0  9996
2 41241  28.7476 106.9789 0021099 179.6023 180.5307  1.00265451  9767
INTELSAT 29E (IS-29E)   
1 41308U 16004A   18254.16631460 -.00000311  00000-0  00000-0 0  9990
2 41308   0.0343 242.7075 0001506 284.0459 193.2486  1.00270858  9754
EUTELSAT 9B             
1 41310U 16005A   18254.99997342  .00000034  00000-0  00000+0 0  9999
2 41310   0.0332  70.6683 0003692 183.4676 105.8227  1.00274773  9683
SES-9                   
1 41380U 16013A   18254.72508629 -.00000374  00000-0  00000+0 0  9990
2 41380   0.0459 270.4017 0001576 211.7767 237.8354  1.00272224  9323
EUTELSAT 65 WEST A      
1 41382U 16014A   18255.20568171 -.00000304  00000-0  00000+0 0  9998
2 41382   0.0528 359.7694 0001665 157.6688 202.5683  1.00272579  9229
IRNSS-1F                
1 41384U 16015A   18254.63392855  .00000127  00000-0  00000+0 0  9993
2 41384   3.2481 251.8128 0019183 189.2858 170.2100  1.00276497  9264
IRNSS-1G                
1 41469U 16027A   18254.37017247 -.00000368  00000-0  00000-0 0  9999
2 41469   3.3091 253.6584 0005536 214.8432 144.6628  1.00271177  8766
JCSAT 2B                
1 41471U 16028A   18254.59843594 -.00000194  00000-0  00000+0 0  9995
2 41471   0.0153 151.5118 0001608  12.0482 196.4438  1.00273220  8653
THAICOM 8               
1 41552U 16031A   18254.80773235 -.00000150  00000-0  00000-0 0  9990
2 41552   0.0617  32.3031 0002564  51.7498 275.9751  1.00272150  8288
INTELSAT 31 (IS-31)     
1 41581U 16035A   18254.29105614 -.00000180  00000-0  00000+0 0  9991
2 41581   0.0308 240.6372 0001439 351.1992 128.1488  1.00271233  8260
BD-2-G7                 
1 41586U 16037A   18254.62479121 -.00000276  00000-0  00000+0 0  9998
2 41586   0.7367   1.2600 0001462 226.5807 132.1461  1.00275996  8365
ABS-2A (MONGOLSAT-1)    
1 41588U 16038A   18254.81818587 -.00000113  00000-0  00000-0 0  9996
2 41588   0.0122 152.9113 0001985 289.2179 277.8920  1.00272677  8281
EUTELSAT 117 WEST B     
1 41589U 16038B   18254.35178142 -.00000040  00000-0  00000-0 0  9991
2 41589   0.0012  37.2988 0000308 147.0896 175.6113  1.00269819  8272
BRISAT                  
1 41591U 16039A   18254.60817778 -.00000226  00000-0  00000+0 0  9993
2 41591   0.0218 168.7164 0001971 355.4096 195.8801  1.00269062  8215
ECHOSTAR 18             
1 41592U 16039B   18255.19506860 -.00000310  00000-0  00000+0 0  9990
2 41592   0.0241 159.8810 0001430   8.3755 191.7468  1.00270835  8200
TIANTONG-1 1            
1 41725U 16048A   18253.77158177 -.00000346  00000-0  00000-0 0  9994
2 41725   3.9364 326.7798 0002034 307.7143  94.3322  1.00267874  7838
JCSAT-16                
1 41729U 16050A   18254.60968373 -.00000229  00000-0  00000+0 0  9990
2 41729   0.0364 100.5083 0001634  69.3704 190.1231  1.00273696  7646
INTELSAT 36 (IS-36)     
1 41747U 16053A   18254.83529695 -.00000053  00000-0  00000-0 0  9994
2 41747   0.0129 156.0801 0002960 213.3172 350.6082  1.00270258  7538
INTELSAT 33E (IS-33E)   
1 41748U 16053B   18254.85883847  .00000021  00000-0  00000+0 0  9992
2 41748   0.0329  14.8957 0002833 167.7893 177.3124  1.00270366  7794
INSAT-3DR               
1 41752U 16054A   18254.82004735 -.00000105  00000-0  00000+0 0  9990
2 41752   0.0303 112.2699 0006696 156.7978  90.8548  1.00272116  7389
GSAT-18                 
1 41793U 16060A   18254.82031118 -.00000105  00000-0  00000+0 0  9997
2 41793   0.0073 160.9821 0006972 300.0914 259.0034  1.00271406  7117
SKY MUSTER 2            
1 41794U 16060B   18254.62393312 -.00000273  00000-0  00000-0 0  9990
2 41794   0.0195 236.2192 0001419 286.3454 197.4388  1.00273354  7095
HIMAWARI-9              
1 41836U 16064A   18254.63510518 -.00000304  00000-0  00000+0 0  9995
2 41836   0.0194 173.4635 0000739 346.6443 199.8951  1.00269734  6871
SHIJIAN-17 (SJ-17)      
1 41838U 16065A   18254.95964613 -.00000291  00000-0  00000-0 0  9998
2 41838   0.1336 105.3895 0001783  45.9524 279.2052  1.00270336  6801
GOES 16                 
1 41866U 16071A   18255.23337132 -.00000276  00000-0  00000+0 0  9990
2 41866   0.0089  96.5751 0000197  31.9353 231.4907  1.00272177  6681
TIANLIAN 1-04           
1 41869U 16072A   18255.50043429 -.00000134  00000-0  00000+0 0  9990
2 41869   1.6974 286.1781 0013523 168.7922 153.5471  1.00270229  6880
FENGYUN 4A              
1 41882U 16077A   18255.50593015 -.00000357  00000-0  00000+0 0  9998
2 41882   0.1250  95.1328 0005749  48.5887 134.4560  1.00276763  6557
ECHOSTAR 19             
1 41893U 16079A   18254.29680083 -.00000167  00000-0  00000-0 0  9999
2 41893   0.0182 116.8982 0001550  41.4825 201.6241  1.00271591  6297
JCSAT-15                
1 41903U 16082A   18254.72009500 -.00000380  00000-0  00000-0 0  9999
2 41903   0.0293 252.5530 0001191   8.7134  98.7187  1.00271404  6331
STAR ONE D1             
1 41904U 16082B   18255.25773624 -.00000239  00000-0  00000+0 0  9996
2 41904   0.0243 115.8772 0002152  72.7992 171.3193  1.00273574  6365
TJS-2                   
1 41911U 17001A   18254.94940897 -.00000371  00000-0  00000-0 0  9997
2 41911   0.2972  97.3769 0002189 212.4980 130.3087  1.00274214  6307
HISPASAT 36W-1          
1 41942U 17006A   18255.12474399 -.00000272  00000-0  00000+0 0  9995
2 41942   0.0062 152.8327 0000915  26.3316 180.8359  1.00270355  6108
TELKOM 3S               
1 41944U 17007A   18254.69816214 -.00000392  00000-0  00000-0 0  9999
2 41944   0.0097 143.1112 0002281  24.5464 192.3467  1.00272232  5704
INTELSAT 32E (IS-32E)   
1 41945U 17007B   18254.14740819 -.00000298  00000-0  00000+0 0  9991
2 41945   0.0254 156.0334 0000471 267.6168 296.3546  1.00268513  5811
ECHOSTAR 23             
1 42070U 17014A   18254.15221264 -.00000302  00000-0  00000-0 0  9995
2 42070   0.0235 157.6016 0002051   9.7859 192.6176  1.00268653  5511
